NORAD_CAT_ID,OBJECT_NAME,OBJECT_TYPE,EPOCH,MEAN_MOTION,ECCENTRICITY,INCLINATION,RA_OF_ASC_NODE,ARG_OF_PERICENTER,MEAN_ANOMALY,BSTAR,MEAN_MOTION_DOT,MEAN_MOTION_DDOT,TLE_LINE0,TLE_LINE1,TLE_LINE2,SEMIMAJOR_AXIS,PERIOD,APOGEE,PERIGEE,DECAYED
53600.0,STARLINK-4677,PAYLOAD,2023-05-28 04:52:41,15.08838806,0.000109,53.2163,127.0403,83.454,276.6577,2.2771e-05,7.5e-07,0.0,0 STARLINK-4677,1 53600U 22104N   23148.20325841  .00000075  00000-0  22771-4 0  9991,2 53600  53.2163 127.0403 0001090  83.4540 276.6577 15.08838806 42167,6917.884,95.438,540.503,538.995,0.0
53600.0,STARLINK-4677,PAYLOAD,2023-05-28 16:00:23,15.08842472,0.0001111,53.2165,124.9588,82.8069,277.3049,3.429e-05,2.58e-06,0.0,0 STARLINK-4677,1 53600U 22104N   23148.66693562  .00000258  00000-0  34290-4 0  9991,2 53600  53.2165 124.9588 0001111  82.8069 277.3049 15.08842472 42236,6917.873,95.437,540.506,538.969,0.0
53600.0,STARLINK-4677,PAYLOAD,2023-05-29 04:43:27,15.08848244,0.0001092,53.2164,122.5794,83.9973,276.1144,7.0738e-05,8.38e-06,0.0,0 STARLINK-4677,1 53600U 22104N   23149.19684920  .00000838  00000-0  70738-4 0  9999,2 53600  53.2164 122.5794 0001092  83.9973 276.1144 15.08848244 42036,6917.855,95.437,540.476,538.965,0.0
53600.0,STARLINK-4677,PAYLOAD,2023-05-29 07:54:13,15.08848863,0.0001099,53.2164,121.9846,83.8429,276.2689,7.5108e-05,9.08e-06,0.0,0 STARLINK-4677,1 53600U 22104N   23149.32932811  .00000908  00000-0  75108-4 0  9993,2 53600  53.2164 121.9846 0001099  83.8429 276.2689 15.08848863 42334,6917.853,95.437,540.479,538.958,0.0
53600.0,STARLINK-4677,PAYLOAD,2023-05-30 02:58:52,15.08836592,0.0001056,53.2165,118.4158,84.955,275.1562,4.2129e-05,3.83e-06,0.0,0 STARLINK-4677,1 53600U 22104N   23150.12421639  .00000383  00000-0  42129-4 0  9998,2 53600  53.2165 118.4158 0001056  84.9550 275.1562 15.08836592 42178,6917.891,95.438,540.486,539.025,0.0
53600.0,STARLINK-4677,PAYLOAD,2023-05-30 07:45:01,15.08839168,0.0001056,53.2168,117.5236,85.3387,274.7725,3.2092e-05,2.23e-06,0.0,0 STARLINK-4677,1 53600U 22104N   23150.32293514  .00000223  00000-0  32092-4 0  9990,2 53600  53.2168 117.5236 0001056  85.3387 274.7725 15.08839168 42483,6917.883,95.438,540.478,539.017,0.0
53600.0,STARLINK-4677,PAYLOAD,2023-05-31 07:35:48,15.088433,0.0001094,53.2169,113.0623,86.2724,273.8393,9.2422e-06,-1.41e-06,0.0,0 STARLINK-4677,1 53600U 22104N   23151.31653294 -.00000141  00000-0  92422-5 0  9999,2 53600  53.2169 113.0623 0001094  86.2724 273.8393 15.08843300 42352,6917.87,95.437,540.492,538.978,0.0
53600.0,STARLINK-4677,PAYLOAD,2023-06-01 02:40:26,15.0883262,0.000107,53.2168,109.4944,87.6439,272.4676,4.1396e-06,-2.22e-06,0.0,0 STARLINK-4677,1 53600U 22104N   23152.11142131 -.00000222  00000-0  41396-5 0  9995,2 53600  53.2168 109.4944 0001070  87.6439 272.4676 15.08832620 42473,6917.903,95.438,540.508,539.028,0.0
53600.0,STARLINK-4677,PAYLOAD,2023-06-01 04:15:49,15.08836085,0.0001029,53.2162,109.1978,94.2683,265.8426,4.3295e-05,4.01e-06,0.0,0 STARLINK-4677,1 53600U 22104N   23152.17765767  .00000401  00000-0  43295-4 0  9994,2 53600  53.2162 109.1978 0001029  94.2683 265.8426 15.08836085 42760,6917.892,95.438,540.469,539.046,0.0
53600.0,STARLINK-4677,PAYLOAD,2023-06-02 05:41:59,15.08839262,9.92e-05,53.2167,104.4412,93.8579,266.2526,3.9917e-05,3.48e-06,0.0,0 STARLINK-4677,1 53600U 22104N   23153.23749940  .00000348  00000-0  39917-4 0  9993,2 53600  53.2167 104.4412 0000992  93.8579 266.2526 15.08839262 42646,6917.883,95.438,540.434,539.061,0.0
53600.0,STARLINK-4677,PAYLOAD,2023-06-03 02:22:01,15.08834304,9.53e-05,53.2169,100.5754,91.6377,268.4724,2.5022e-05,1.1e-06,0.0,0 STARLINK-4677,1 53600U 22104N   23154.09862633  .00000110  00000-0  25022-4 0  9992,2 53600  53.2169 100.5754 0000953  91.6377 268.4724 15.08834304 42773,6917.898,95.438,540.422,539.104,0.0
53600.0,STARLINK-4677,PAYLOAD,2023-06-03 03:57:24,15.08835435,9.52e-05,53.2167,100.278,91.4539,268.6562,3.459e-05,2.63e-06,0.0,0 STARLINK-4677,1 53600U 22104N   23154.16486568  .00000263  00000-0  34590-4 0  9998,2 53600  53.2167 100.2780 0000952  91.4539 268.6562 15.08835435 43065,6917.894,95.438,540.418,539.101,0.0
53600.0,STARLINK-4677,PAYLOAD,2023-06-03 19:51:15,15.08839771,9.52e-05,53.2169,97.3039,80.9805,279.1295,4.7192e-05,4.63e-06,0.0,0 STARLINK-4677,1 53600U 22104N   23154.82726458  .00000463  00000-0  47192-4 0  9990,2 53600  53.2169  97.3039 0000952  80.9805 279.1295 15.08839771 43167,6917.881,95.438,540.405,539.088,0.0
53600.0,STARLINK-4677,PAYLOAD,2023-06-04 02:12:47,15.08843377,9.55e-05,53.2171,96.1146,85.7165,274.3936,7.3555e-05,8.83e-06,0.0,0 STARLINK-4677,1 53600U 22104N   23155.09222117  .00000883  00000-0  73555-4 0  9991,2 53600  53.2171  96.1146 0000955  85.7165 274.3936 15.08843377 42920,6917.87,95.437,540.396,539.074,0.0
53600.0,STARLINK-4677,PAYLOAD,2023-06-04 03:48:10,15.08845221,0.0001,53.217,95.8174,84.3781,275.7325,8.9608e-05,1.139e-05,0.0,0 STARLINK-4677,1 53600U 22104N   23155.15845962  .00001139  00000-0  89608-4 0  9998,2 53600  53.2170  95.8174 0001000  84.3781 275.7325 15.08845221 43217,6917.864,95.437,540.421,539.038,0.0
53600.0,STARLINK-4677,PAYLOAD,2023-06-04 19:42:02,15.08837692,0.0001023,53.2171,92.8435,86.6944,273.4165,3.7584e-05,3.1e-06,0.0,0 STARLINK-4677,1 53600U 22104N   23155.82086619  .00000310  00000-0  37584-4 0  9994,2 53600  53.2171  92.8435 0001023  86.6944 273.4165 15.08837692 43036,6917.887,95.438,540.46,539.045,0.0
53600.0,STARLINK-4677,PAYLOAD,2023-06-05 13:11:16,15.0884302,0.0001004,53.2173,89.5727,80.5814,279.5292,6.6472e-05,7.7e-06,0.0,0 STARLINK-4677,1 53600U 22104N   23156.54950171  .00000770  00000-0  66472-4 0  9995,2 53600  53.2173  89.5727 0001004  80.5814 279.5292 15.08843020 43426,6917.871,95.437,540.431,539.042,0.0
53600.0,STARLINK-4677,PAYLOAD,2023-06-06 00:18:59,15.0884271,0.0001047,53.2174,87.4908,84.5325,275.5786,-3.2969e-07,-2.93e-06,0.0,0 STARLINK-4677,1 53600U 22104N   23157.01318349 -.00000293  00000-0 -32969-6 0  9991,2 53600  53.2174  87.4908 0001047  84.5325 275.5786 15.08842710 43219,6917.872,95.437,540.461,539.013,0.0
53600.0,STARLINK-4677,PAYLOAD,2023-06-06 01:54:21,15.08844692,0.0001089,53.2173,87.1931,86.8924,273.2193,3.1897e-05,2.2e-06,0.0,0 STARLINK-4677,1 53600U 22104N   23157.07942112  .00000220  00000-0  31897-4 0  9993,2 53600  53.2173  87.1931 0001089  86.8924 273.2193 15.08844692 43507,6917.866,95.437,540.484,538.978,0.0
53600.0,STARLINK-4677,PAYLOAD,2023-06-06 22:34:23,15.08827404,0.0001076,53.2175,83.3265,87.0674,273.0441,0.00019153,2.761e-05,0.0,0 STARLINK-4677,1 53600U 22104N   23157.94054647  .00002761  00000-0  19153-3 0  9998,2 53600  53.2175  83.3265 0001076  87.0674 273.0441 15.08827404 43357,6917.919,95.438,540.528,539.04,0.0
53600.0,STARLINK-4677,PAYLOAD,2023-06-07 00:09:46,15.0883053,0.000108,53.2176,83.0295,85.3126,274.799,0.00016792,2.385e-05,0.0,0 STARLINK-4677,1 53600U 22104N   23158.00678567  .00002385  00000-0  16792-3 0  9997,2 53600  53.2176  83.0295 0001080  85.3126 274.7990 15.08830530 43649,6917.909,95.438,540.521,539.027,0.0
53600.0,STARLINK-4677,PAYLOAD,2023-06-07 19:14:24,15.08834584,0.000121,53.2179,79.4615,92.2453,267.8677,-2.1336e-05,-6.27e-06,0.0,0 STARLINK-4677,1 53600U 22104N   23158.80166984 -.00000627  00000-0 -21336-4 0  9990,2 53600  53.2179  79.4615 0001210  92.2453 267.8677 15.08834584 43763,6917.897,95.438,540.599,538.925,0.0
53600.0,STARLINK-4677,PAYLOAD,2023-06-07 22:25:10,15.08834014,0.0001213,53.2179,78.8666,92.9531,267.16,-2.6164e-05,-7.04e-06,0.0,0 STARLINK-4677,1 53600U 22104N   23158.93415067 -.00000704  00000-0 -26164-4 0  9993,2 53600  53.2179  78.8666 0001213  92.9531 267.1600 15.08834014 43788,6917.899,95.438,540.603,538.925,0.0
53600.0,STARLINK-4677,PAYLOAD,2023-06-08 23:51:20,15.08839035,0.000122,53.2176,74.1105,81.852,278.261,8.1096e-05,1.003e-05,0.0,0 STARLINK-4677,1 53600U 22104N   23159.99398734  .00001003  00000-0  81096-4 0  9997,2 53600  53.2176  74.1105 0001220  81.8520 278.2610 15.08839035 43664,6917.883,95.438,540.592,538.904,0.0
53600.0,STARLINK-4677,PAYLOAD,2023-06-09 10:59:02,15.08837629,0.0001217,53.2174,72.0289,81.1133,278.9997,8.0318e-05,9.91e-06,0.0,0 STARLINK-4677,1 53600U 22104N   23160.45766900  .00000991  00000-0  80318-4 0  9995,2 53600  53.2174  72.0289 0001217  81.1133 278.9997 15.08837629 44013,6917.888,95.438,540.595,538.911,0.0
53600.0,STARLINK-4677,PAYLOAD,2023-06-10 02:52:54,15.08833281,0.0001303,53.2174,69.056,84.4168,275.6972,5.2882e-05,5.54e-06,0.0,0 STARLINK-4677,1 53600U 22104N   23161.12007552  .00000554  00000-0  52882-4 0  9991,2 53600  53.2174  69.0560 0001303  84.4168 275.6972 15.08833281 43837,6917.901,95.438,540.667,538.865,0.0
53600.0,STARLINK-4677,PAYLOAD,2023-06-10 10:49:50,15.08838383,0.0001301,53.219,67.5685,82.9973,277.1167,1.4284e-05,-6.1e-07,0.0,0 STARLINK-4677,1 53600U 22104N   23161.45127396 -.00000061  00000-0  14284-4 0  9994,2 53600  53.2190  67.5685 0001301  82.9973 277.1167 15.08838383 44169,6917.885,95.438,540.65,538.85,0.0
53600.0,STARLINK-4677,PAYLOAD,2023-06-10 20:22:09,15.08838293,0.0001125,53.2175,65.7854,88.7244,271.3877,-1.7139e-05,-5.61e-06,0.0,0 STARLINK-4677,1 53600U 22104N   23161.84871652 -.00000561  00000-0 -17139-4 0  9996,2 53600  53.2175  65.7854 0001125  88.7244 271.3877 15.08838293 44220,6917.886,95.438,540.529,538.972,0.0
53600.0,STARLINK-4677,PAYLOAD,2023-06-11 02:43:40,15.08857538,0.0001414,53.2175,64.5958,102.2864,257.8287,-0.00011577,-2.131e-05,0.0,0 STARLINK-4677,1 53600U 22104N   23162.11366659 -.00002131  00000-0 -11577-3 0  9997,2 53600  53.2175  64.5958 0001414 102.2864 257.8287 15.08857538 43982,6917.827,95.436,540.67,538.714,0.0
53600.0,STARLINK-4677,PAYLOAD,2023-06-11 12:16:00,15.0887034,0.0001458,53.2178,62.8123,79.1369,280.9787,-0.00036532,-6.102e-05,0.0,0 STARLINK-4677,1 53600U 22104N   23162.51111157 -.00006102  00000-0 -36532-3 0  9992,2 53600  53.2178  62.8123 0001458  79.1369 280.9787 15.08870340 44327,6917.788,95.436,540.661,538.644,0.0
